STARLINK-3263           
1 50196U 21125AS  23355.10741556  .00005661  00000+0  37340-3 0  9996
2 50196  53.2179 273.5318 0001928  66.4192 293.7003 15.08849992114518
STARLINK-3267           
1 50197U 21125AT  23355.57013091 -.00012288  00000+0 -75547-3 0  9990
2 50197  53.2152 271.3995 0001354  92.5037 267.6110 15.08831201114634
STARLINK-3264           
1 50198U 21125AU  23355.09172860  .00006678  00000+0  43707-3 0  9995
2 50198  53.2155 273.5526 0001538  86.5247 273.5921 15.08858357114516
STARLINK-3270           
1 50199U 21125AV  23355.07332974  .00006577  00000+0  43073-3 0  9992
2 50199  53.2175 273.6298 0001428  86.4214 273.6941 15.08855495114509
STARLINK-3235           
1 50200U 21125AW  23355.10004934  .00010738  00000+0  69132-3 0  9999
2 50200  53.2168 273.5206 0001746  59.2934 300.8230 15.08862787114520
STARLINK-3255           
1 50201U 21125AX  23355.08900722  .00009125  00000+0  59031-3 0  9992
2 50201  53.2164 273.5693 0001423  81.9447 278.1707 15.08862713114514
STARLINK-3256           
1 50202U 21125AY  23355.06964433  .00002442  00000+0  17144-3 0  9994
2 50202  53.2187 273.6449 0001488 106.9731 253.1424 15.08847529114501
STARLINK-3257           
1 50203U 21125AZ  23355.09541690  .00005386  00000+0  35618-3 0  9990
2 50203  53.2164 273.5336 0001790  85.7072 274.4125 15.08849112114570
STARLINK-3254           
1 50204U 21125BA  23355.01172659  .00004440  00000+0  29685-3 0  9995
2 50204  53.2166 273.9167 0001177  93.0378 267.0749 15.08846251114558
STARLINK-3260           
1 50205U 21125BB  23355.01817240  .00004575  00000+0  30529-3 0  9996
2 50205  53.2160 243.8837 0001575  60.2136 299.9012 15.08849429114921
STARLINK-3258           
1 50206U 21125BC  23355.07059816  .00005400  00000+0  35700-3 0  9994
2 50206  53.2176 273.5386 0001675  84.9327 275.1857 15.08850802112438
STARLINK-3262           
1 50207U 21125BD  23355.08436594  .00004987  00000+0  33108-3 0  9997
2 50207  53.2167 273.5828 0001542 113.2738 246.8416 15.08851527112504
STARLINK-3321           
1 50803U 22001A   23354.87000855  .00001155  00000+0  90625-4 0  9998
2 50803  53.2153 204.5426 0001455  86.8058 273.3101 15.08841686108159
STARLINK-3323           
1 50804U 22001B   23354.83781280  .00001731  00000+0  12684-3 0  9991
2 50804  53.2149 194.6904 0001669  84.8617 275.2566 15.08841817108287
STARLINK-3333           
1 50805U 22001C   23354.83412827  .00001149  00000+0  90239-4 0  9996
2 50805  53.2161 194.7075 0001518  84.5842 275.5324 15.08844776108284
STARLINK-3335           
1 50806U 22001D   23354.83044934  .00001542  00000+0  11492-3 0  9997
2 50806  53.2160 194.7222 0001380  79.2382 280.8765 15.08844335108284
STARLINK-3353           
1 50807U 22001E   23354.88197302  .00003001  00000+0  20659-3 0  9998
2 50807  53.2131 194.4902 0001349 102.3858 257.7285 15.08836021109561
STARLINK-3355           
1 50808U 22001F   23354.88933519  .00001182  00000+0  92350-4 0  9993
2 50808  53.2154 194.4571 0001525  77.0978 283.0184 15.08840231109542
STARLINK-3232           
1 50809U 22001G   23354.82677152  .00001056  00000+0  84441-4 0  9998
2 50809  53.2159 194.7396 0001655  70.7572 289.3599 15.08843445109561
STARLINK-3348           
1 50810U 22001H   23354.88565909 -.00000130  00000+0  99632-5 0  9994
2 50810  53.2168 194.4737 0001701  68.2102 291.9071 15.08836074109544
STARLINK-3347           
1 50811U 22001J   23354.87558296 -.00001568  00000+0 -80489-4 0  9991
2 50811  53.2137 194.4841 0001297 106.4131 253.7004 15.08821721108290
STARLINK-3338           
1 50812U 22001K   23354.78630596  .00000121  00000+0  25700-4 0  9993
2 50812  53.2172 195.0268 0001478 100.8216 259.2942 15.08836629108276
STARLINK-3349           
1 50813U 22001L   23354.87092966  .00000340  00000+0  39465-4 0  9993
2 50813  53.2156 194.4842 0001455  84.0042 276.1116 15.08835033109545
STARLINK-3324           
1 50814U 22001M   23354.85528992  .00002142  00000+0  15260-3 0  9993
2 50814  53.2152 204.6092 0001469  75.8284 284.2871 15.08844411108158
STARLINK-3234           
1 50815U 22001N   23354.86633143  .00002146  00000+0  15287-3 0  9993
2 50815  53.2149 204.5654 0001528  85.5092 274.6075 15.08843556108157
STARLINK-3342           
1 50816U 22001P   23354.90313657  .00004116  00000+0  27667-3 0  9998
2 50816  53.2157 204.3931 0001442  99.4947 260.6208 15.08825080109438
STARLINK-3341           
1 50817U 22001Q   23354.86265907  .00001221  00000+0  94833-4 0  9992
2 50817  53.2159 204.5705 0002042 100.9960 259.1262 15.08835049109408
STARLINK-3336           
1 50818U 22001R   23354.91049043  .00002159  00000+0  15370-3 0  9999
2 50818  53.2164 204.3626 0001390  86.4861 273.6290 15.08844169108154
STARLINK-3327           
1 50819U 22001S   23354.85161595  .00000877  00000+0  73182-4 0  9991
2 50819  53.2157 204.6285 0001662  69.5418 290.5752 15.08841063109357
STARLINK-3339           
1 50820U 22001T   23354.89945571  .00002812  00000+0  19472-3 0  9993
2 50820  53.2161 204.4135 0001422 102.3932 257.7220 15.08832350109430
STARLINK-3346           
1 50821U 22001U   23354.87367828  .00000240  00000+0  33169-4 0  9998
2 50821  53.2160 204.4062 0001446  97.5114 262.6043 15.08837197108152
STARLINK-3343           
1 50822U 22001V   23354.89209318  .00000316  00000+0  37972-4 0  9990
2 50822  53.2155 204.4442 0001343  95.4543 264.6602 15.08835789108156
STARLINK-3334           
1 50823U 22001W   23354.85897088  .00001764  00000+0  12888-3 0  9990
2 50823  53.2163 204.5868 0001760  72.9036 287.2149 15.08847349108151
STARLINK-3340           
1 50824U 22001X   23355.41833355  .00000373  00000+0  41534-4 0  9997
2 50824  53.2162 202.0810 0001508 103.5622 256.5538 15.08837534108238
STARLINK-3332           
1 50825U 22001Y   23354.82953147  .00001355  00000+0  10321-3 0  9994
2 50825  53.2145 204.7235 0001331 101.2204 258.8938 15.08839007108141
STARLINK-3337           
1 50826U 22001Z   23354.86605120  .00044347  00000+0  25087-2 0  9996
2 50826  53.2151 203.7913 0004310 158.1457 201.9721 15.12650731109445
STARLINK-3329           
1 50827U 22001AA  23354.90681277  .00003530  00000+0  23971-3 0  9999
2 50827  53.2143 204.3789 0001357  85.3505 274.7642 15.08846059109421
STARLINK-3290           
1 50828U 22001AB  23354.89303900  .00000120  00000+0  25652-4 0  9993
2 50828  53.2153 204.3293 0001375 101.2333 258.8814 15.08832635108002
STARLINK-3294           
1 50829U 22001AC  23354.91417713  .00001423  00000+0  10747-3 0  9990
2 50829  53.2159 204.3416 0001618  70.6047 289.5119 15.08838417108156
STARLINK-3278           
1 50830U 22001AD  23354.93165467  .00000085  00000+0  23420-4 0  9996
2 50830  53.2156 214.2668 0001443  91.7426 268.3731 15.08843520109297
STARLINK-3299           
1 50831U 22001AE  23354.81114699  .00006336  00000+0  41582-3 0  9998
2 50831  53.2153 204.8731 0001776 121.6179 238.4986 15.08840982108140
STARLINK-3328           
1 50832U 22001AF  23354.93261905  .00002282  00000+0  16143-3 0  9996
2 50832  53.2157 214.3111 0001405  88.5599 271.5554 15.08839697108026
STARLINK-3316           
1 50833U 22001AG  23354.77326790  .00002198  00000+0  11810-3 0  9995
2 50833  53.2171 188.6062 0001795 178.9814 181.1187 15.19203911108379
STARLINK-3331           
1 50834U 22001AH  23354.85069441  .00001167  00000+0  91406-4 0  9997
2 50834  53.2155 214.6334 0001249  82.8144 277.2990 15.08834060108009
STARLINK-3310           
1 50835U 22001AJ  23354.85438640  .00000091  00000+0  23792-4 0  9997
2 50835  53.2160 214.7309 0001494 112.5082 247.6069 15.08841156109264
STARLINK-3330           
1 50836U 22001AK  23354.89946470  .00001710  00000+0  12554-3 0  9999
2 50836  53.2146 214.1914 0001474  78.7900 281.3258 15.08838511109272
STARLINK-3318           
1 50837U 22001AL  23354.88105328  .00001008  00000+0  81425-4 0  9992
2 50837  53.2158 204.4883 0001348  99.6435 260.4710 15.08837713108158
STARLINK-3322           
1 50838U 22001AM  23354.92393503  .00002724  00000+0  18916-3 0  9992
2 50838  53.2153 209.8388 0001425  80.8240 279.2913 15.08841251109285
STARLINK-3320           
1 50839U 22001AN  23354.89853204  .00001388  00000+0  10528-3 0  9994
2 50839  53.2157 214.4216 0001564  98.2208 261.8962 15.08839950108006
STARLINK-3295           
1 50840U 22001AP  23354.82861169  .00001503  00000+0  11246-3 0  9995
2 50840  53.2144 214.7244 0001524  64.3493 295.7657 15.08845393109280
STARLINK-3300           
1 50841U 22001AQ  23354.83965428  .00001061  00000+0  84729-4 0  9996
2 50841  53.2149 214.6792 0001339  83.5730 276.5414 15.08840321108007
STARLINK-3302           
1 50842U 22001AR  23354.89116846  .00001795  00000+0  13080-3 0  9990
2 50842  53.2164 214.4495 0001565  76.5192 283.5974 15.08849682108006
STARLINK-3325           
1 50843U 22001AS  23354.84701324  .00000670  00000+0  60193-4 0  9996
2 50843  53.2163 214.6455 0001552 105.7071 254.4093 15.08835411108005
STARLINK-3326           
1 50844U 22001AT  23354.81389611  .00001170  00000+0  91621-4 0  9991
2 50844  53.2165 214.7967 0001563  78.7752 281.3416 15.08839954108008
STARLINK-3230           
1 50845U 22001AU  23354.92429286  .00002234  00000+0  15840-3 0  9997
2 50845  53.2146 214.3011 0001164  88.3810 271.7315 15.08839864109252
STARLINK-3308           
1 50846U 22001AV  23354.88750224  .00000695  00000+0  61717-4 0  9996
2 50846  53.2165 214.5771 0001523  83.5798 276.5367 15.08849054109296
STARLINK-3319           
1 50847U 22001AW  23354.90316849  .00000448  00000+0  46219-4 0  9997
2 50847  53.2157 214.3994 0001635  96.6482 263.4696 15.08843531109218
STARLINK-3315           
1 50848U 22001AX  23354.93902484  .00005178  00000+0  34330-3 0  9992
2 50848  53.2163 214.2328 0001534 101.2573 258.8591 15.08829321108029
STARLINK-3311           
1 50849U 22001AY  23354.88381282  .00000648  00000+0  58799-4 0  9997
2 50849  53.2160 214.4833 0001456  83.1290 276.9868 15.08843330109213
